AEROCUBE 6B             
1 40046U 14033AN  21178.52540987  .00000413  00000-0  65934-4 0  9993
2 40046  97.6844  27.9437 0055784 212.9916 146.7810 14.75868692377421
SPOT 7                  
1 40053U 14034A   21178.14217240 -.00000011  00000-0  75622-5 0  9994
2 40053  98.2166 245.4845 0001202  97.0814 263.0512 14.58542143372291
CANX-4                  
1 40055U 14034C   21178.39129288  .00000099  00000-0  22794-4 0  9993
2 40055  98.3077 319.9278 0015204  51.8931 308.3646 14.75059930376377
CANX-5                  
1 40056U 14034D   21178.39615668  .00000111  00000-0  24479-4 0  9993
2 40056  98.3077 319.9186 0015230  52.1008 308.1575 14.75052070367180
OCO 2                   
1 40059U 14035A   21178.53237119  .00000046  00000-0  20191-4 0  9998
2 40059  98.2097 119.8160 0001451  92.4550 267.6815 14.57105469371645
GONETS-M 8              
1 40061U 14036A   21178.11150803  .00000037  00000-0  19386-3 0  9993
2 40061  82.5113 355.5678 0029641 149.9908 210.2916 12.42904407316851
GONETS-M 9              
1 40062U 14036B   21178.10320169  .00000030  00000-0  14742-3 0  9991
2 40062  82.5106 355.5938 0022943 154.8448 205.3788 12.42787196316840
GONETS-M 10             
1 40063U 14036C   21178.16209851  .00000035  00000-0  17811-3 0  9997
2 40063  82.5119 355.5007 0022184 141.2576 219.0126 12.42758865316851
METEOR-M 2              
1 40069U 14037A   21178.15438033 -.00000039  00000-0  14483-5 0  9998
2 40069  98.4585 206.6344 0004463 280.0614  80.0060 14.20684787361419
MKA-PN 2 (RELEC)        
1 40070U 14037B   21178.55299125  .00000040  00000-0  19755-4 0  9998
2 40070  98.0281 208.1660 0136203 303.5598  55.2653 14.52204820369329
DX1                     
1 40071U 14037C   21178.44707472  .00000133  00000-0  24512-4 0  9996
2 40071  98.4517  23.6273 0008968  23.9952 336.1685 14.81506887376772
SKYSAT-B                
1 40072U 14037D   21178.51997976  .00000108  00000-0  21268-4 0  9992
2 40072  98.4518  23.5257 0006886  24.7151 335.4388 14.81421739376697
UKUBE-1                 
1 40074U 14037F   21178.48916555  .00000195  00000-0  30197-4 0  9991
2 40074  98.4294  34.8225 0004652   9.6053 350.5254 14.84566738377392
AISSAT 2                
1 40075U 14037G   21178.43031966  .00000144  00000-0  25205-4 0  9999
2 40075  98.4417  28.9509 0006602  33.2906 326.8725 14.82671874377043
TECHDEMOSAT-1 (TDS-1)   
1 40076U 14037H   21178.56702270  .00000410  00000-0  55404-4 0  9997
2 40076  98.4361  26.6333 0007878 128.4876 231.7045 14.84775654377032
O3B FM3                 
1 40079U 14038A   21178.30011447 -.00000027  00000-0  00000-0 0  9995
2 40079   0.0414   6.2380 0000958 154.5366 199.2259  5.00115455122202
O3B FM7                 
1 40080U 14038B   21178.24657348 -.00000027  00000-0  00000-0 0  9996
2 40080   0.0371   4.1666 0004261  78.0073 277.8714  5.00115781127033
O3B FM6                 
1 40081U 14038C   21178.27267304 -.00000027  00000-0  00000-0 0  9999
2 40081   0.0411   7.6927 0002631  87.0604 265.2739  5.00115627126986
O3B FM8                 
1 40082U 14038D   21178.32661044 -.00000027  00000-0  00000-0 0  9995
2 40082   0.0393  11.2282 0002654  87.4811 261.3177  5.00115355127106
ORBCOMM FM109           
1 40086U 14040A   21178.54306324 -.00000033  00000-0  30703-4 0  9997
2 40086  47.0054   3.7522 0001970 139.2506 220.8526 14.54889260369709
ORBCOMM FM107           
1 40087U 14040B   21178.56543777 -.00000044  00000-0  28066-4 0  9996
2 40087  47.0072   4.3128 0001989 154.8735 205.2246 14.54886512369743
ORBCOMM FM103           
1 40091U 14040F   21178.51956582 -.00000009  00000-0  36222-4 0  9992
2 40091  47.0077   4.8324 0001939 133.5926 226.5120 14.54877148352741
USA 254                 
1 40100U 14043B   21153.52036242 -.00000054  00000-0  00000+0 0  9992
2 40100   0.0577  84.2946 0000988  15.6788 138.5714  1.00578908   297
NAVSTAR 71 (USA 256)    
1 40105U 14045A   21177.22778163  .00000031  00000-0  00000-0 0  9992
2 40105  54.6308 161.0265 0016638 106.7626 253.3937  2.00553196 49636
ASIASAT 8 (AMOS-7)      
1 40107U 14046A   21178.32005924 -.00000044  00000-0  00000-0 0  9990
2 40107   0.0138  24.6092 0002327  66.5708 295.8095  1.00269524 83946
YAOGAN 20A              
1 40109U 14047A   21178.63063819 -.00000172  00000-0 -11745-3 0  9998
2 40109  63.3929  12.7755 0228759   7.0152 353.3980 13.45200796338241
YAOGAN 20B              
1 40110U 14047B   21178.63083053 -.00000119  00000-0 -40979-4 0  9995
2 40110  63.3943  13.6341 0228667   7.0601 353.3552 13.45200542338229
YAOGAN 20C              
1 40111U 14047C   21178.63057207 -.00000139  00000-0 -70100-4 0  9999
2 40111  63.3925  13.5178 0228781   7.3044 353.1219 13.45199711338221
WORLDVIEW-3 (WV-3)      
1 40115U 14048A   21178.50216659  .00000349  00000-0  47093-4 0  9994
2 40115  97.8442 253.2700 0002620 134.6605 225.5005 14.85051659372466
GAOFEN 2                
1 40118U 14049A   21178.18212005  .00000085  00000-0  17658-4 0  9994
2 40118  97.8031 252.1424 0008560  40.5509 319.6367 14.80658958370522
BRITE-PL2 (HEWELIUSZ)   
1 40119U 14049B   21178.53795153  .00000142  00000-0  23207-4 0  9995
2 40119  97.8886 272.9162 0016476 327.2318  32.7874 14.84664351371343
GSAT0201 (GALILEO 5)    
1 40128U 14050A   21178.00813880 -.00000115  00000-0  00000-0 0  9990
2 40128  50.4722 346.4417 1648527 111.7370 266.6241  1.85518696 44621
GSAT0202 (GALILEO 6)    
1 40129U 14050B   21175.03645197 -.00000110  00000-0  00000-0 0  9990
2 40129  50.5039 345.6096 1645925 112.4373 265.8358  1.85519284 46736
LING QIAO               
1 40136U 14051A   21178.18862064 -.00000016  00000-0  10667-4 0  9991
2 40136  98.5676 165.5683 0022169  99.4197 260.9529 14.29697708355526
CHUANGXIN 1-04 (CX-1-04)
1 40137U 14051B   21178.18818628 -.00000009  00000-0  13173-4 0  9996
2 40137  98.5691 165.4823 0023842 100.8131 259.5759 14.29643460355506
ASIASAT 6               
1 40141U 14052A   21178.56001950 -.00000373  00000-0  00000-0 0  9991
2 40141   0.0276 285.7601 0000980 166.9035 144.7071  1.00268793 24953
YAOGAN 21               
1 40143U 14053A   21178.63603676  .00001117  00000-0  49450-4 0  9997
2 40143  97.3946 247.0704 0016961  33.6352 124.0990 15.23624910378524
TIANTUO 2               
1 40144U 14053B   21178.55673470  .00001082  00000-0  33465-4 0  9998
2 40144  97.2237 260.6191 0012803  45.1178  69.0035 15.35579956380605
OPTUS 10                
1 40146U 14054A   21178.43613719 -.00000158  00000-0  00000-0 0  9997
2 40146   0.0356  82.4925 0003534  33.9371 112.3309  1.00271576 24815
MEASAT-3B               
1 40147U 14054B   21178.48261703 -.00000252  00000-0  00000-0 0  9990
2 40147   0.0266  26.7055 0001660  50.4129 103.9221  1.00270878 24705
LUCH (OLYMP)            
1 40258U 14058A   21178.68869804  .00000125  00000-0  00000+0 0  9992
2 40258   0.0440 157.4045 0001282 307.6190 104.0849  1.00274884 24730
SJ-11-07                
1 40261U 14059A   21178.44508362  .00000036  00000-0  16900-4 0  9992
2 40261  98.1531 262.2466 0013806  84.8515 275.4262 14.60599579359672
HIMAWARI-8              
1 40267U 14060A   21178.49246359 -.00000287  00000-0  00000-0 0  9999
2 40267   0.0246  99.0169 0001549  27.9916 106.7423  1.00270592 24555
IRNSS-1C                
1 40269U 14061A   21178.48095954 -.00000172  00000-0  00000-0 0  9997
2 40269   2.3025 147.6150 0020465  12.0539  12.2393  1.00273826 24483
INTELSAT 30 (IS-30)     
1 40271U 14062A   21177.58409059 -.00000160  00000-0  00000+0 0  9992
2 40271   0.0010  11.8468 0001856  69.5646 308.7161  1.00273872 24553
ARSAT 1                 
1 40272U 14062B   21178.52186212 -.00000270  00000-0  00000-0 0  9994
2 40272   0.0171  31.2535 0001739  66.6054 294.0393  1.00271428 24407
YAOGAN 22               
1 40275U 14063A   21178.15761750 -.00000027  00000-0  47166-4 0  9991
2 40275 100.5312 295.1799 0005848 336.8085  23.2710 13.15429407321032
EXPRESS-AM6             
1 40277U 14064A   21178.25959491  .00000088  00000-0  00000-0 0  9994
2 40277   0.0528 204.5284 0000630 331.4341 246.0462  1.00271076 24464
SJ-11-08                
1 40286U 14066A   21178.51187387  .00000058  00000-0  20934-4 0  9991
2 40286  98.1359 298.8591 0013736 156.6095 203.5745 14.61859141355640
NAVSTAR 72 (USA 258)    
1 40294U 14068A   21177.59721828 -.00000033  00000-0  00000-0 0  9995
2 40294  55.5606 102.0222 0034680  47.3772 312.9059  2.00575393 48777
MERIDIAN 7              
1 40296U 14069A   21177.22867861  .00000039  00000-0  00000+0 0  9990
2 40296  63.2089  76.9722 7055399 273.5019 345.7323  2.00604881 48771
ASNARO                  
1 40298U 14070A   21178.57036690  .00001244  00000-0  61527-4 0  9996
2 40298  97.3920 259.5740 0002164  85.5815  25.8436 15.19631940368309
HODOYOSHI-1             
1 40299U 14070B   21178.54445436  .00000814  00000-0  35653-4 0  9999
2 40299  97.2862 251.8507 0011629 319.0145 153.0276 15.24754311368958
QSAT-EOS                
1 40301U 14070D   21178.56247260  .00002288  00000-0  83789-4 0  9990
2 40301  97.2542 249.9302 0022323 299.3562 179.2947 15.28819669369200
YAOGAN 23               
1 40305U 14071A   21178.62564324  .00000847  00000-0  43903-4 0  9998
2 40305  97.5635 123.2789 0001025  71.8332 100.9442 15.18919149366668
YAOGAN 24               
1 40310U 14072A   21178.14319609  .00000035  00000-0  12387-4 0  9997
2 40310  97.9393 298.8485 0018916 346.3939  13.6754 14.76264859355816
COSMOS 2501 [GLONASS-K] 
1 40315U 14075A   21178.14570344  .00000014  00000-0  00000+0 0  9991
2 40315  63.7686 253.6317 0017938 209.7830  57.0972  2.13101524 51156
GSAT-16                 
1 40332U 14078A   21178.47537645  .00000074  00000-0  00000-0 0  9993
2 40332   0.0541 265.2550 0007775 180.4095  56.3438  1.00270935 23902
DIRECTV 14              
1 40333U 14078B   21178.32950417 -.00000136  00000-0  00000-0 0  9994
2 40333   0.0361 107.2916 0000294 337.5804 210.1680  1.00271590 23846
